$$SOE
2460147.500000000, A.D. 2023-Jul-22 00:00:00.0000, -3.158321512211839E+09, -8.202042665764406E+09, -5.586023325386763E+07,
2460154.500000000, A.D. 2023-Jul-29 00:00:00.0000, -3.156706936511450E+09, -8.203923084185703E+09, -5.536821705422735E+07,
2460161.500000000, A.D. 2023-Aug-05 00:00:00.0000, -3.155092219162360E+09, -8.205802941162327E+09, -5.487619458796930E+07,
2460168.500000000, A.D. 2023-Aug-12 00:00:00.0000, -3.153477362668778E+09, -8.207682238760057E+09, -5.438416574224472E+07,
2460175.500000000, A.D. 2023-Aug-19 00:00:00.0000, -3.151862369229954E+09, -8.209560979533333E+09, -5.389213043437481E+07,
2460182.500000000, A.D. 2023-Aug-26 00:00:00.0000, -3.150247240739431E+09, -8.211439166435261E+09, -5.340008860576916E+07,
2460189.500000000, A.D. 2023-Sep-02 00:00:00.0000, -3.148631978807306E+09, -8.213316802798928E+09, -5.290804022050238E+07,
2460196.500000000, A.D. 2023-Sep-09 00:00:00.0000, -3.147016584768856E+09, -8.215193892431252E+09, -5.241598527526712E+07,
2460203.500000000, A.D. 2023-Sep-16 00:00:00.0000, -3.145401059511111E+09, -8.217070439877376E+09, -5.192392384079599E+07,
2460210.500000000, A.D. 2023-Sep-23 00:00:00.0000, -3.143785402700979E+09, -8.218946450568804E+09, -5.143185614948463E+07,
2460217.500000000, A.D. 2023-Sep-30 00:00:00.0000, -3.142169611754464E+09, -8.220821929664596E+09, -5.093978260062551E+07,
2460224.500000000, A.D. 2023-Oct-07 00:00:00.0000, -3.140553682900736E+09, -8.222696880128392E+09, -5.044770351163149E+07,
2460231.500000000, A.D. 2023-Oct-14 00:00:00.0000, -3.138937613301149E+09, -8.224571303354498E+09, -4.995561898118162E+07,
2460238.500000000, A.D. 2023-Oct-21 00:00:00.0000, -3.137321400994599E+09, -8.226445200740250E+09, -4.946352902930164E+07,
2460245.500000000, A.D. 2023-Oct-28 00:00:00.0000, -3.135705044093574E+09, -8.228318573944593E+09, -4.897143369876099E+07,
2460252.500000000, A.D. 2023-Nov-04 00:00:00.0000, -3.134088540480955E+09, -8.230191424603206E+09, -4.847933306587601E+07,
2460259.500000000, A.D. 2023-Nov-11 00:00:00.0000, -3.132471887829961E+09, -8.232063754100117E+09, -4.798722722572088E+07,
2460266.500000000, A.D. 2023-Nov-18 00:00:00.0000, -3.130855083727774E+09, -8.233935563460043E+09, -4.749511627692699E+07,
2460273.500000000, A.D. 2023-Nov-25 00:00:00.0000, -3.129238125830002E+09, -8.235806853338957E+09, -4.700300031064653E+07,
2460280.500000000, A.D. 2023-Dec-02 00:00:00.0000, -3.127621012017790E+09, -8.237677624124048E+09, -4.651087940701532E+07,
2460287.500000000, A.D. 2023-Dec-09 00:00:00.0000, -3.126003740479769E+09, -8.239547876201977E+09, -4.601875365097094E+07,
2460294.500000000, A.D. 2023-Dec-16 00:00:00.0000, -3.124386309431278E+09, -8.241417610382901E+09, -4.552662319269228E+07,
2460301.500000000, A.D. 2023-Dec-23 00:00:00.0000, -3.122768716122427E+09, -8.243286827792765E+09, -4.503448832854033E+07,
2460308.500000000, A.D. 2023-Dec-30 00:00:00.0000, -3.121150956475208E+09, -8.245155528184668E+09, -4.454234939389324E+07,
2460315.500000000, A.D. 2024-Jan-06 00:00:00.0000, -3.119533027122092E+09, -8.247023709029976E+09, -4.405020649841499E+07,
2460322.500000000, A.D. 2024-Jan-13 00:00:00.0000, -3.117914926673404E+09, -8.248891367196095E+09, -4.355805954266167E+07,
2460329.500000000, A.D. 2024-Jan-20 00:00:00.0000, -3.116296654989891E+09, -8.250758500126338E+09, -4.306590837642384E+07,
2460336.500000000, A.D. 2024-Jan-27 00:00:00.0000, -3.114678212489217E+09, -8.252625105869679E+09, -4.257375285966301E+07,
2460343.500000000, A.D. 2024-Feb-03 00:00:00.0000, -3.113059599914790E+09, -8.254491182909016E+09, -4.208159286452293E+07,
2460350.500000000, A.D. 2024-Feb-10 00:00:00.0000, -3.111440818289510E+09, -8.256356730079039E+09, -4.158942826785851E+07,
2460357.500000000, A.D. 2024-Feb-17 00:00:00.0000, -3.109821868915785E+09, -8.258221746565825E+09, -4.109725894652176E+07,
2460364.500000000, A.D. 2024-Feb-24 00:00:00.0000, -3.108202753385841E+09, -8.260086231973315E+09, -4.060508477765608E+07,
2460371.500000000, A.D. 2024-Mar-02 00:00:00.0000, -3.106583473573009E+09, -8.261950186489236E+09, -4.011290564944029E+07,
2460378.500000000, A.D. 2024-Mar-09 00:00:00.0000, -3.104964031465146E+09, -8.263813611213297E+09, -3.962072150023794E+07,
2460385.500000000, A.D. 2024-Mar-16 00:00:00.0000, -3.103344428444921E+09, -8.265676508450405E+09, -3.912853240635204E+07,
2460392.500000000, A.D. 2024-Mar-23 00:00:00.0000, -3.101724664120519E+09, -8.267538880859860E+09, -3.863633861827230E+07,
2460399.500000000, A.D. 2024-Mar-30 00:00:00.0000, -3.100104736947912E+09, -8.269400729487325E+09, -3.814414034206963E+07,
2460406.500000000, A.D. 2024-Apr-06 00:00:00.0000, -3.098484646388675E+09, -8.271262054047161E+09, -3.765193756463909E+07,
2460413.500000000, A.D. 2024-Apr-13 00:00:00.0000, -3.096864393052207E+09, -8.273122854618717E+09, -3.715973018015337E+07,
2460420.500000000, A.D. 2024-Apr-20 00:00:00.0000, -3.095243977774495E+09, -8.274983132079943E+09, -3.666751811162710E+07,
2460427.500000000, A.D. 2024-Apr-27 00:00:00.0000, -3.093623401150465E+09, -8.276842887839658E+09, -3.617530133430624E+07,
2460434.500000000, A.D. 2024-May-04 00:00:00.0000, -3.092002663431979E+09, -8.278702123571818E+09, -3.568307986634922E+07,
2460441.500000000, A.D. 2024-May-11 00:00:00.0000, -3.090381764553153E+09, -8.280560841053383E+09, -3.519085375689030E+07,
2460448.500000000, A.D. 2024-May-18 00:00:00.0000, -3.088760704201003E+09, -8.282419042083891E+09, -3.469862307709026E+07,
2460455.500000000, A.D. 2024-May-25 00:00:00.0000, -3.087139481906706E+09, -8.284276728493557E+09, -3.420638791685247E+07,
2460462.500000000, A.D. 2024-Jun-01 00:00:00.0000, -3.085518097097620E+09, -8.286133902296986E+09, -3.371414839716005E+07,
2460469.500000000, A.D. 2024-Jun-08 00:00:00.0000, -3.083896548863711E+09, -8.287990566015157E+09, -3.322190472227240E+07,
2460476.500000000, A.D. 2024-Jun-15 00:00:00.0000, -3.082274835038858E+09, -8.289846722620283E+09, -3.272965726360607E+07,
2460483.500000000, A.D. 2024-Jun-22 00:00:00.0000, -3.080652951602267E+09, -8.291702373928225E+09, -3.223740648679447E+07,
2460490.500000000, A.D. 2024-Jun-29 00:00:00.0000, -3.079030894521603E+09, -8.293557519259007E+09, -3.174515267587566E+07,
2460497.500000000, A.D. 2024-Jul-06 00:00:00.0000, -3.077408661392858E+09, -8.295412156836457E+09, -3.125289589892769E+07,
2460504.500000000, A.D. 2024-Jul-13 00:00:00.0000, -3.075786250927690E+09, -8.297266285102735E+09, -3.076063616300154E+07,
2460511.500000000, A.D. 2024-Jul-20 00:00:00.0000, -3.074163662273890E+09, -8.299119902799040E+09, -3.026837348224592E+07,
2460518.500000000, A.D. 2024-Jul-27 00:00:00.0000, -3.072540894824982E+09, -8.300973008771875E+09, -2.977610787747288E+07,
2460525.500000000, A.D. 2024-Aug-03 00:00:00.0000, -3.070917948246005E+09, -8.302825601879766E+09, -2.928383936288357E+07,
2460532.500000000, A.D. 2024-Aug-10 00:00:00.0000, -3.069294822549722E+09, -8.304677681004650E+09, -2.879156793568325E+07,
2460539.500000000, A.D. 2024-Aug-17 00:00:00.0000, -3.067671518175914E+09, -8.306529245145957E+09, -2.829929357134295E+07,
2460546.500000000, A.D. 2024-Aug-24 00:00:00.0000, -3.066048036045934E+09, -8.308380293619259E+09, -2.780701622910643E+07,
2460553.500000000, A.D. 2024-Aug-31 00:00:00.0000, -3.064424377476884E+09, -8.310230826420610E+09, -2.731473588364935E+07,
2460560.500000000, A.D. 2024-Sep-07 00:00:00.0000, -3.062800543589931E+09, -8.312080844629844E+09, -2.682245260631990E+07,
2460567.500000000, A.D. 2024-Sep-14 00:00:00.0000, -3.061176534127511E+09, -8.313930349856656E+09, -2.633016662268734E+07,
2460574.500000000, A.D. 2024-Sep-21 00:00:00.0000, -3.059552347708246E+09, -8.315779342316662E+09, -2.583787812674856E+07,
2460581.500000000, A.D. 2024-Sep-28 00:00:00.0000, -3.057927984007082E+09, -8.317627820764890E+09, -2.534558707109404E+07,
2460588.500000000, A.D. 2024-Oct-05 00:00:00.0000, -3.056303444190920E+09, -8.319475784284917E+09, -2.485329326958227E+07,
2460595.500000000, A.D. 2024-Oct-12 00:00:00.0000, -3.054678729970397E+09, -8.321323232953403E+09, -2.436099653602600E+07,
2460602.500000000, A.D. 2024-Oct-19 00:00:00.0000, -3.053053843018710E+09, -8.323170167650708E+09, -2.386869672047186E+07,
2460609.500000000, A.D. 2024-Oct-26 00:00:00.0000, -3.051428784789840E+09, -8.325016589818782E+09, -2.337639370560884E+07,
2460616.500000000, A.D. 2024-Nov-02 00:00:00.0000, -3.049803556478726E+09, -8.326862501314493E+09, -2.288408739904690E+07,
2460623.500000000, A.D. 2024-Nov-09 00:00:00.0000, -3.048178159026670E+09, -8.328707904337404E+09, -2.239177772857332E+07,
2460630.500000000, A.D. 2024-Nov-16 00:00:00.0000, -3.046552593145897E+09, -8.330552801431437E+09, -2.189946464272404E+07,
2460637.500000000, A.D. 2024-Nov-23 00:00:00.0000, -3.044926859316219E+09, -8.332397195610048E+09, -2.140714812497187E+07,
2460644.500000000, A.D. 2024-Nov-30 00:00:00.0000, -3.043300957545335E+09, -8.334241090647302E+09, -2.091482824404192E+07,
2460651.500000000, A.D. 2024-Dec-07 00:00:00.0000, -3.041674886473256E+09, -8.336084491114000E+09, -2.042250524434996E+07,
2460658.500000000, A.D. 2024-Dec-14 00:00:00.0000, -3.040048642509359E+09, -8.337927400934707E+09, -1.993017951325941E+07,
2460665.500000000, A.D. 2024-Dec-21 00:00:00.0000, -3.038422221320591E+09, -8.339769821706315E+09, -1.943785131373882E+07,
2460672.500000000, A.D. 2024-Dec-28 00:00:00.0000, -3.036795619698259E+09, -8.341611753745388E+09, -1.894552070566130E+07,
2460679.500000000, A.D. 2025-Jan-04 00:00:00.0000, -3.035168835206158E+09, -8.343453197488050E+09, -1.845318769957018E+07,
2460686.500000000, A.D. 2025-Jan-11 00:00:00.0000, -3.033541865431175E+09, -8.345294153582502E+09, -1.796085234000492E+07,
2460693.500000000, A.D. 2025-Jan-18 00:00:00.0000, -3.031914707753214E+09, -8.347134622592997E+09, -1.746851470908689E+07,
2460700.500000000, A.D. 2025-Jan-25 00:00:00.0000, -3.030287359390791E+09, -8.348974604789746E+09, -1.697617491125441E+07,
2460707.500000000, A.D. 2025-Feb-01 00:00:00.0000, -3.028659817532684E+09, -8.350814100054949E+09, -1.648383305868578E+07,
$$EOE